{
  "type": "FeatureCollection",
  "features": [
    {
      "type": "Feature",
      "properties": {
        "pnu": "1168010300100120000",
        "source": "MapPlan C-9 snapshot recovery"
      },
      "geometry": {
        "coordinates": [
          [
            [
              962201.02522,
              1943841.80188
            ],
            [
              962210.40147,
              1943851.19867
            ],
            [
              962310.38647,
              1943957.41892
            ],
            [
              962331.54959,
              1943991.6039
            ],
            [
              962351.13186,
              1944023.62808
            ],
            [
              962362.08086,
              1944044.98202
            ],
            [
              962379.28105,
              1944083.99617
            ],
            [
              962399.48705,
              1944162.06966
            ],
            [
              962404.05866,
              1944187.23595
            ],
            [
              962411.08353,
              1944196.20534
            ],
            [
              962471.71758,
              1944220.16506
            ],
            [
              962514.30746,
              1944113.69962
            ],
            [
              962534.49313,
              1944121.86959
            ],
            [
              962659.89314,
              1944170.44689
            ],
            [
              962710.155,
              1944044.13832
            ],
            [
              962710.80309,
              1944041.93572
            ],
            [
              962711.06096,
              1944039.66521
            ],
            [
              962710.94888,
              1944037.37667
            ],
            [
              962710.44722,
              1944035.14017
            ],
            [
              962709.59634,
              1944033.02548
            ],
            [
              962708.39645,
              1944031.07257
            ],
            [
              962706.8879,
              1944029.35121
            ],
            [
              962705.11094,
              1944027.91117
            ],
            [
              962703.11571,
              1944026.78217
            ],
            [
              962681.56753,
              1944018.03963
            ],
            [
              962677.93069,
              1944016.48948
            ],
            [
              962670.78548,
              1944013.10861
            ],
            [
              962663.82834,
              1944009.37688
            ],
            [
              962657.06921,
              1944005.28423
            ],
            [
              962650.52819,
              1944000.85056
            ],
            [
              962644.21538,
              1943996.0958
            ],
            [
              962638.16078,
              1943991.01979
            ],
            [
              962632.37442,
              1943985.63248
            ],
            [
              962626.87647,
              1943979.96374
            ],
            [
              962624.23192,
              1943977.02886
            ],
            [
              962597.46094,
              1943946.62217
            ],
            [
              962505.25578,
              1943840.92054
            ],
            [
              962510.26798,
              1943828.47868
            ],
            [
              962449.45109,
              1943803.97011
            ],
            [
              962405.16331,
              1943786.13146
            ],
            [
              962418.08919,
              1943754.18504
            ],
            [
              962339.82131,
              1943722.58159
            ],
            [
              962326.10299,
              1943755.90169
            ],
            [
              962278.75024,
              1943736.9097
            ],
            [
              962273.73889,
              1943749.51149
            ],
            [
              962273.33207,
              1943750.08343
            ],
            [
              962272.55551,
              1943750.67732
            ],
            [
              962271.64615,
              1943750.73212
            ],
            [
              962248.17652,
              1943741.5799
            ],
            [
              962245.14498,
              1943739.18686
            ],
            [
              962201.02522,
              1943841.80188
            ]
          ]
        ],
        "type": "Polygon"
      }
    }
  ]
}